{
  "norad_id": 57777,
  "name": "STARLINK-30355",
  "history": [
    {
      "epoch": "2026-04-15T00:37:37.704576Z",
      "apogee_km": 486.537874096256,
      "perigee_km": 484.5729362345055,
      "latitude_deg": 3.096665095655084e-05,
      "longitude_deg": 140.0921178142859,
      "height_km": 485.38315851580563,
      "semi_major_axis_km": 6863.6924051653805,
      "eccentricity": 0.00014314,
      "inclination_deg": 43.004,
      "raan_deg": 352.6933,
      "arg_perigee_deg": 267.0531,
      "mean_anomaly_deg": 93.0157,
      "mean_motion_rev_day": 15.26743372
    },
    {
      "epoch": "2026-04-16T01:44:56.573664Z",
      "apogee_km": 486.63105315875964,
      "perigee_km": 484.3134868526495,
      "latitude_deg": 6.757105608585743e-06,
      "longitude_deg": 116.3285527830717,
      "height_km": 485.2548793070972,
      "semi_major_axis_km": 6863.609270005704,
      "eccentricity": 0.00016883,
      "inclination_deg": 43.0043,
      "raan_deg": 346.7901,
      "arg_perigee_deg": 269.747,
      "mean_anomaly_deg": 90.3188,
      "mean_motion_rev_day": 15.26771111
    },
    {
      "epoch": "2026-04-17T21:42:46.753920Z",
      "apogee_km": 486.62697489916445,
      "perigee_km": 484.4816595410548,
      "latitude_deg": -3.221938958141064e-05,
      "longitude_deg": 164.7320948071131,
      "height_km": 485.38059577190756,
      "semi_major_axis_km": 6863.691317220109,
      "eccentricity": 0.00015628,
      "inclination_deg": 43.0046,
      "raan_deg": 336.4583,
      "arg_perigee_deg": 267.3896,
      "mean_anomaly_deg": 92.6776,
      "mean_motion_rev_day": 15.26743735
    },
    {
      "epoch": "2026-04-18T21:15:53.517312Z",
      "apogee_km": 486.6809988265222,
      "perigee_km": 484.41323759386523,
      "latitude_deg": 1.160202598387769e-05,
      "longitude_deg": 164.95081954604066,
      "height_km": 485.47830682715636,
      "semi_major_axis_km": 6863.684118210193,
      "eccentricity": 0.0001652,
      "inclination_deg": 43.0046,
      "raan_deg": 330.9224,
      "arg_perigee_deg": 262.2083,
      "mean_anomaly_deg": 97.8581,
      "mean_motion_rev_day": 15.26746137
    },
    {
      "epoch": "2026-04-19T20:49:01.168032Z",
      "apogee_km": 489.25386546070877,
      "perigee_km": 481.572180275115,
      "latitude_deg": -1.3500062409855292e-05,
      "longitude_deg": 165.16976228170088,
      "height_km": 484.8943214747889,
      "semi_major_axis_km": 6863.550022867911,
      "eccentricity": 0.0005596,
      "inclination_deg": 43.015,
      "raan_deg": 325.3905,
      "arg_perigee_deg": 274.4717,
      "mean_anomaly_deg": 85.5495,
      "mean_motion_rev_day": 15.2679088
    },
    {
      "epoch": "2026-04-19T23:57:26.694432Z",
      "apogee_km": 486.5594935361005,
      "perigee_km": 484.61925536456965,
      "latitude_deg": 2.7527495479150668e-05,
      "longitude_deg": 117.19417322745798,
      "height_km": 485.5576026339108,
      "semi_major_axis_km": 6863.726374450334,
      "eccentricity": 0.00014134,
      "inclination_deg": 43.0048,
      "raan_deg": 324.6502,
      "arg_perigee_deg": 258.6483,
      "mean_anomaly_deg": 101.421,
      "mean_motion_rev_day": 15.26732038
    },
    {
      "epoch": "2026-04-21T19:55:15.489696Z",
      "apogee_km": 486.6207240529084,
      "perigee_km": 484.52591966267755,
      "latitude_deg": 3.36371388840741e-05,
      "longitude_deg": 165.6025427389322,
      "height_km": 485.6989243750176,
      "semi_major_axis_km": 6863.710321857792,
      "eccentricity": 0.0001526,
      "inclination_deg": 43.0046,
      "raan_deg": 314.3174,
      "arg_perigee_deg": 250.5757,
      "mean_anomaly_deg": 109.493,
      "mean_motion_rev_day": 15.26737394
    },
    {
      "epoch": "2026-04-22T19:28:23.028960Z",
      "apogee_km": 486.65772384145475,
      "perigee_km": 484.465458511434,
      "latitude_deg": 1.0784516969119855e-05,
      "longitude_deg": 165.8195522143826,
      "height_km": 485.60409690606093,
      "semi_major_axis_km": 6863.698591176444,
      "eccentricity": 0.0001597,
      "inclination_deg": 43.0049,
      "raan_deg": 308.7831,
      "arg_perigee_deg": 256.0047,
      "mean_anomaly_deg": 104.0627,
      "mean_motion_rev_day": 15.26741308
    },
    {
      "epoch": "2026-04-22T22:36:47.979072Z",
      "apogee_km": 486.67560219789266,
      "perigee_km": 484.4435280749103,
      "latitude_deg": 1.6651881637478538e-05,
      "longitude_deg": 117.84843329598851,
      "height_km": 485.61018623298156,
      "semi_major_axis_km": 6863.696565136402,
      "eccentricity": 0.0001626,
      "inclination_deg": 43.0049,
      "raan_deg": 308.0449,
      "arg_perigee_deg": 255.831,
      "mean_anomaly_deg": 104.2361,
      "mean_motion_rev_day": 15.26741984
    },
    {
      "epoch": "2026-04-24T13:51:59.453280Z",
      "apogee_km": 486.79794717591176,
      "perigee_km": 484.2803507644694,
      "latitude_deg": 3.2561887807000613e-05,
      "longitude_deg": -121.78623249692555,
      "height_km": 485.56932546658146,
      "semi_major_axis_km": 6863.67614897019,
      "eccentricity": 0.0001834,
      "inclination_deg": 43.0049,
      "raan_deg": 298.8201,
      "arg_perigee_deg": 258.4255,
      "mean_anomaly_deg": 101.6391,
      "mean_motion_rev_day": 15.26748796
    },
    {
      "epoch": "2026-04-25T18:07:41.109888Z",
      "apogee_km": 487.3121865908397,
      "perigee_km": 483.55918504623514,
      "latitude_deg": 1.555312093362078e-05,
      "longitude_deg": 166.48271825760574,
      "height_km": 484.85098827344166,
      "semi_major_axis_km": 6863.572685818537,
      "eccentricity": 0.0002734,
      "inclination_deg": 42.9965,
      "raan_deg": 292.1733,
      "arg_perigee_deg": 281.1255,
      "mean_anomaly_deg": 78.9289,
      "mean_motion_rev_day": 15.26783318
    },
    {
      "epoch": "2026-04-26T19:14:10.068288Z",
      "apogee_km": 485.776598027981,
      "perigee_km": 482.2996711307924,
      "latitude_deg": -1.56287874574609e-05,
      "longitude_deg": 142.92837470820987,
      "height_km": 483.4347705759747,
      "semi_major_axis_km": 6862.175134579386,
      "eccentricity": 0.00025334,
      "inclination_deg": 43.0037,
      "raan_deg": 286.2708,
      "arg_perigee_deg": 282.6723,
      "mean_anomaly_deg": 77.3845,
      "mean_motion_rev_day": 15.27249759
    },
    {
      "epoch": "2026-04-27T20:20:55.237920Z",
      "apogee_km": 485.12457056651874,
      "perigee_km": 482.2837683223688,
      "latitude_deg": 4.48599319725734e-05,
      "longitude_deg": 119.30209755142593,
      "height_km": 483.22123838532355,
      "semi_major_axis_km": 6861.841169444443,
      "eccentricity": 0.000207,
      "inclination_deg": 43.0037,
      "raan_deg": 280.364,
      "arg_perigee_deg": 280.5718,
      "mean_anomaly_deg": 79.4901,
      "mean_motion_rev_day": 15.27361257
    },
    {
      "epoch": "2026-04-28T20:00:01.000224Z",
      "apogee_km": 484.2104381807512,
      "perigee_km": 482.0944165213559,
      "latitude_deg": 17.494304340529503,
      "longitude_deg": 137.6323329117471,
      "height_km": 482.7514613974997,
      "semi_major_axis_km": 6861.289427351053,
      "eccentricity": 0.0001542,
      "inclination_deg": 43.0027,
      "raan_deg": 274.8002,
      "arg_perigee_deg": 272.3262,
      "mean_anomaly_deg": 113.7351,
      "mean_motion_rev_day": 15.27545492
    },
    {
      "epoch": "2026-04-29T20:00:01.999008Z",
      "apogee_km": 484.25935441454294,
      "perigee_km": 481.97181280316727,
      "latitude_deg": 30.653778560011297,
      "longitude_deg": -107.84031389415722,
      "height_km": 484.7036423007436,
      "semi_major_axis_km": 6861.252583608854,
      "eccentricity": 0.0001667,
      "inclination_deg": 43.0031,
      "raan_deg": 269.1529,
      "arg_perigee_deg": 274.2202,
      "mean_anomaly_deg": 217.633,
      "mean_motion_rev_day": 15.27557796
    },
    {
      "epoch": "2026-04-30T11:07:07.280544Z",
      "apogee_km": 484.0551031583582,
      "perigee_km": 482.038052410162,
      "latitude_deg": 1.0850150202385766e-05,
      "longitude_deg": -119.60118822640959,
      "height_km": 483.54317209665805,
      "semi_major_axis_km": 6861.18357778426,
      "eccentricity": 0.00014699,
      "inclination_deg": 43.0015,
      "raan_deg": 265.5888,
      "arg_perigee_deg": 224.434,
      "mean_anomaly_deg": 135.6394,
      "mean_motion_rev_day": 15.27580841
    },
    {
      "epoch": "2026-05-02T08:37:38.385120Z",
      "apogee_km": 484.1586856991189,
      "perigee_km": 481.7847420841126,
      "latitude_deg": 1.1596403339112862e-05,
      "longitude_deg": -94.80206566902409,
      "height_km": 482.823248628854,
      "semi_major_axis_km": 6861.1087138916155,
      "eccentricity": 0.000173,
      "inclination_deg": 43.0043,
      "raan_deg": 254.8865,
      "arg_perigee_deg": 266.4206,
      "mean_anomaly_deg": 93.6448,
      "mean_motion_rev_day": 15.27605843
    },
    {
      "epoch": "2026-05-03T17:34:56.216640Z",
      "apogee_km": 484.0165621713877,
      "perigee_km": 482.0295702162184,
      "latitude_deg": 8.054830871239304e-06,
      "longitude_deg": 121.76461708681221,
      "height_km": 482.84117602976977,
      "semi_major_axis_km": 6861.160066193803,
      "eccentricity": 0.0001448,
      "inclination_deg": 43.004,
      "raan_deg": 247.1309,
      "arg_perigee_deg": 267.6388,
      "mean_anomaly_deg": 92.4298,
      "mean_motion_rev_day": 15.27588693
    },
    {
      "epoch": "2026-05-04T17:07:17.666688Z",
      "apogee_km": 484.64801727957365,
      "perigee_km": 481.57555007424344,
      "latitude_deg": 1.3575109793774266e-05,
      "longitude_deg": 122.16852006080897,
      "height_km": 483.11057561640104,
      "semi_major_axis_km": 6861.248783676909,
      "eccentricity": 0.0002239,
      "inclination_deg": 43.0048,
      "raan_deg": 241.5909,
      "arg_perigee_deg": 261.7305,
      "mean_anomaly_deg": 98.3293,
      "mean_motion_rev_day": 15.27559065
    }
  ]
}